{"type": "FeatureCollection", "features": [ {"type": "Feature", "properties": {"norad_id": 28649, "name": "IRS-P5 (CARTOSAT-1)", "group": "resource", "lat": -14.654019031900072, "lon": -158.2045584033928, "alt_km": 601.6330922542047, "timestamp": "2025-12-23T20:42:36.728986+00:00", "meta": {"OBJECT_NAME": "IRS-P5 (CARTOSAT-1)", "OBJECT_ID": "2005-017A", "EPOCH": "2025-12-23T02:06:56.284416", "MEAN_MOTION": 14.90437763, "ECCENTRICITY": 6.18e-05, "INCLINATION": 97.5483, "RA_OF_ASC_NODE": 23.0421, "ARG_OF_PERICENTER": 56.4975, "MEAN_ANOMALY": 303.6302, "EPHEMERIS_TYPE": 0, "CLASSIFICATION_TYPE": "U", "NORAD_CAT_ID": 28649, "ELEMENT_SET_NO": 999, "REV_AT_EPOCH": 11758, "BSTAR": 0.00016366764, "MEAN_MOTION_DOT": 1.543e-05, "MEAN_MOTION_DDOT": 0}, "tle": {"line1": "1 28649U 05017A   25357.08815144  .00001543  00000+0  16367-3 0  9993", "line2": "2 28649  97.5483  23.0421 0000618  56.4975 303.6302 14.90437763117583"}}, "geometry": {"type": "Point", "coordinates": [-158.2045584033928, -14.654019031900072]}}, {"type": "Feature", "properties": {"norad_id": 28893, "name": "SINAH 1", "group": "resource", "lat": -30.78544690719682, "lon": -58.515414768053255, "alt_km": 689.5279436767541, "timestamp": "2025-12-23T20:42:36.728997+00:00", "meta": {"OBJECT_NAME": "SINAH 1", "OBJECT_ID": "2005-043D", "EPOCH": "2025-12-23T06:37:40.577376", "MEAN_MOTION": 14.63973022, "ECCENTRICITY": 0.00156955, "INCLINATION": 98.2609, "RA_OF_ASC_NODE": 125.8619, "ARG_OF_PERICENTER": 106.2589, "MEAN_ANOMALY": 254.0341, "EPHEMERIS_TYPE": 0, "CLASSIFICATION_TYPE": "U", "NORAD_CAT_ID": 28893, "ELEMENT_SET_NO": 999, "REV_AT_EPOCH": 7478, "BSTAR": 8.7326229e-05, "MEAN_MOTION_DOT": 4.09e-06, "MEAN_MOTION_DDOT": 0}, "tle": {"line1": "1 28893U 05043D   25357.27616409  .00000409  00000+0  87326-4 0  9991", "line2": "2 28893  98.2609 125.8619 0015695 106.2589 254.0341 14.63973022 74787"}}, "geometry": {"type": "Point", "coordinates": [-58.515414768053255, -30.78544690719682]}}, {"type": "Feature", "properties": {"norad_id": 29079, "name": "EROS B", "group": "resource", "lat": 40.071395100731046, "lon": -58.774378424072275, "alt_km": 353.4019743845338, "timestamp": "2025-12-23T20:42:36.729008+00:00", "meta": {"OBJECT_NAME": "EROS B", "OBJECT_ID": "2006-014A", "EPOCH": "2025-12-23T07:53:40.633728", "MEAN_MOTION": 15.71626082, "ECCENTRICITY": 0.00040283, "INCLINATION": 97.3464, "RA_OF_ASC_NODE": 114.4326, "ARG_OF_PERICENTER": 311.2256, "MEAN_ANOMALY": 48.8659, "EPHEMERIS_TYPE": 0, "CLASSIFICATION_TYPE": "U", "NORAD_CAT_ID": 29079, "ELEMENT_SET_NO": 999, "REV_AT_EPOCH": 9246, "BSTAR": 0.0013773708, "MEAN_MOTION_DOT": 0.0018027, "MEAN_MOTION_DDOT": 0}, "tle": {"line1": "1 29079U 06014A   25357.32894252  .00180270  00000+0  13774-2 0  9996", "line2": "2 29079  97.3464 114.4326 0004028 311.2256  48.8659 15.71626082 92466"}}, "geometry": {"type": "Point", "coordinates": [-58.774378424072275, 40.071395100731046]}}, {"type": "Feature", "properties": {"norad_id": 29228, "name": "RESURS-DK 1", "group": "resource", "lat": -66.29529891768354, "lon": 16.7342612011692, "alt_km": 532.1492227038107, "timestamp": "2025-12-23T20:42:36.729018+00:00", "meta": {"OBJECT_NAME": "RESURS-DK 1", "OBJECT_ID": "2006-021A", "EPOCH": "2025-12-22T14:53:15.203040", "MEAN_MOTION": 15.12212397, "ECCENTRICITY": 0.00068623, "INCLINATION": 69.9337, "RA_OF_ASC_NODE": 76.3031, "ARG_OF_PERICENTER": 250.1947, "MEAN_ANOMALY": 109.8479, "EPHEMERIS_TYPE": 0, "CLASSIFICATION_TYPE": "U", "NORAD_CAT_ID": 29228, "ELEMENT_SET_NO": 999, "REV_AT_EPOCH": 7587, "BSTAR": 0.00016259773, "MEAN_MOTION_DOT": 2.709e-05, "MEAN_MOTION_DDOT": 0}, "tle": {"line1": "1 29228U 06021A   25356.62031485  .00002709  00000+0  16260-3 0  9997", "line2": "2 29228  69.9337  76.3031 0006862 250.1947 109.8479 15.12212397 75870"}}, "geometry": {"type": "Point", "coordinates": [16.7342612011692, -66.29529891768354]}}, {"type": "Feature", "properties": {"norad_id": 29268, "name": "ARIRANG-2 (KOMPSAT-2)", "group": "resource", "lat": 42.408028782157366, "lon": 13.009095484405087, "alt_km": 681.6469587846841, "timestamp": "2025-12-23T20:42:36.729029+00:00", "meta": {"OBJECT_NAME": "ARIRANG-2 (KOMPSAT-2)", "OBJECT_ID": "2006-031A", "EPOCH": "2025-12-23T07:32:09.236256", "MEAN_MOTION": 14.64501358, "ECCENTRICITY": 0.00131296, "INCLINATION": 97.8253, "RA_OF_ASC_NODE": 185.2711, "ARG_OF_PERICENTER": 272.7512, "MEAN_ANOMALY": 212.0459, "EPHEMERIS_TYPE": 0, "CLASSIFICATION_TYPE": "U", "NORAD_CAT_ID": 29268, "ELEMENT_SET_NO": 999, "REV_AT_EPOCH": 3573, "BSTAR": 3.0448113e-05, "MEAN_MOTION_DOT": 1.16e-06, "MEAN_MOTION_DDOT": 0}, "tle": {"line1": "1 29268U 06031A   25357.31399579  .00000116  00000+0  30448-4 0  9995", "line2": "2 29268  97.8253 185.2711 0013129 272.7512 212.0459 14.64501358 35738"}}, "geometry": {"type": "Point", "coordinates": [13.009095484405087, 42.408028782157366]}}, {"type": "Feature", "properties": {"norad_id": 29709, "name": "LAPAN-TUBSAT", "group": "resource", "lat": -18.922240684659332, "lon": 165.44077614077375, "alt_km": 625.1931872885116, "timestamp": "2025-12-23T20:42:36.729040+00:00", "meta": {"OBJECT_NAME": "LAPAN-TUBSAT", "OBJECT_ID": "2007-001A", "EPOCH": "2025-12-23T06:53:12.442848", "MEAN_MOTION": 14.85688572, "ECCENTRICITY": 0.00133595, "INCLINATION": 98.1259, "RA_OF_ASC_NODE": 347.6604, "ARG_OF_PERICENTER": 42.924, "MEAN_ANOMALY": 317.3014, "EPHEMERIS_TYPE": 0, "CLASSIFICATION_TYPE": "U", "NORAD_CAT_ID": 29709, "ELEMENT_SET_NO": 999, "REV_AT_EPOCH": 2503, "BSTAR": 0.00015946589, "MEAN_MOTION_DOT": 1.327e-05, "MEAN_MOTION_DDOT": 0}, "tle": {"line1": "1 29709U 07001A   25357.28694957  .00001327  00000+0  15947-3 0  9998", "line2": "2 29709  98.1259 347.6604 0013359  42.9240 317.3014 14.85688572 25038"}}, "geometry": {"type": "Point", "coordinates": [165.44077614077375, -18.922240684659332]}}, {"type": "Feature", "properties": {"norad_id": 31113, "name": "HAIYANG-1B", "group": "resource", "lat": 55.6584115796266, "lon": -30.705086197459572, "alt_km": 776.9038342741633, "timestamp": "2025-12-23T20:42:36.729050+00:00", "meta": {"OBJECT_NAME": "HAIYANG-1B", "OBJECT_ID": "2007-010A", "EPOCH": "2025-12-23T05:20:38.753664", "MEAN_MOTION": 14.30968284, "ECCENTRICITY": 0.00137103, "INCLINATION": 98.3327, "RA_OF_ASC_NODE": 341.0682, "ARG_OF_PERICENTER": 8.0626, "MEAN_ANOMALY": 352.0775, "EPHEMERIS_TYPE": 0, "CLASSIFICATION_TYPE": "U", "NORAD_CAT_ID": 31113, "ELEMENT_SET_NO": 999, "REV_AT_EPOCH": 97546, "BSTAR": 5.0548299e-05, "MEAN_MOTION_DOT": 9.1e-07, "MEAN_MOTION_DDOT": 0}, "tle": {"line1": "1 31113U 07010A   25357.22267076  .00000091  00000+0  50548-4 0  9996", "line2": "2 31113  98.3327 341.0682 0013710   8.0626 352.0775 14.30968284975466"}}, "geometry": {"type": "Point", "coordinates": [-30.705086197459572, 55.6584115796266]}}, {"type": "Feature", "properties": {"norad_id": 31598, "name": "COSMO-SKYMED 1", "group": "resource", "lat": -19.686712850097155, "lon": 0.49358164029274665, "alt_km": 585.478036022053, "timestamp": "2025-12-23T20:42:36.729061+00:00", "meta": {"OBJECT_NAME": "COSMO-SKYMED 1", "OBJECT_ID": "2007-023A", "EPOCH": "2025-12-23T06:58:35.496768", "MEAN_MOTION": 14.95842337, "ECCENTRICITY": 0.00014289, "INCLINATION": 97.884, "RA_OF_ASC_NODE": 182.7596, "ARG_OF_PERICENTER": 79.8006, "MEAN_ANOMALY": 280.3375, "EPHEMERIS_TYPE": 0, "CLASSIFICATION_TYPE": "U", "NORAD_CAT_ID": 31598, "ELEMENT_SET_NO": 999, "REV_AT_EPOCH": 348, "BSTAR": 0.0003005743, "MEAN_MOTION_DOT": 3.299e-05, "MEAN_MOTION_DDOT": 0}, "tle": {"line1": "1 31598U 07023A   25357.29068862  .00003299  00000+0  30057-3 0  9991", "line2": "2 31598  97.8840 182.7596 0001428  79.8006 280.3375 14.95842337  3486"}}, "geometry": {"type": "Point", "coordinates": [0.49358164029274665, -19.686712850097155]}}, {"type": "Feature", "properties": {"norad_id": 31698, "name": "TERRASAR-X", "group": "resource", "lat": 67.40668348715417, "lon": -15.234162642037173, "alt_km": 500.57916017215393, "timestamp": "2025-12-23T20:42:36.729072+00:00", "meta": {"OBJECT_NAME": "TERRASAR-X", "OBJECT_ID": "2007-026A", "EPOCH": "2025-12-22T11:12:42.874560", "MEAN_MOTION": 15.19156937, "ECCENTRICITY": 0.00019029, "INCLINATION": 97.4451, "RA_OF_ASC_NODE": 1.7062, "ARG_OF_PERICENTER": 89.1914, "MEAN_ANOMALY": 270.9539, "EPHEMERIS_TYPE": 0, "CLASSIFICATION_TYPE": "U", "NORAD_CAT_ID": 31698, "ELEMENT_SET_NO": 999, "REV_AT_EPOCH": 2639, "BSTAR": 3.1918703e-05, "MEAN_MOTION_DOT": 6.03e-06, "MEAN_MOTION_DDOT": 0}, "tle": {"line1": "1 31698U 07026A   25356.46716290  .00000603  00000+0  31919-4 0  9993", "line2": "2 31698  97.4451   1.7062 0001902  89.1914 270.9539 15.19156937 26391"}}, "geometry": {"type": "Point", "coordinates": [-15.234162642037173, 67.40668348715417]}}, {"type": "Feature", "properties": {"norad_id": 32060, "name": "WORLDVIEW-1 (WV-1)", "group": "resource", "lat": -76.76024206172677, "lon": 148.6240831227624, "alt_km": 500.89772724887007, "timestamp": "2025-12-23T20:42:36.729083+00:00", "meta": {"OBJECT_NAME": "WORLDVIEW-1 (WV-1)", "OBJECT_ID": "2007-041A", "EPOCH": "2025-12-23T05:17:50.368704", "MEAN_MOTION": 15.23921594, "ECCENTRICITY": 0.00032781, "INCLINATION": 97.3827, "RA_OF_ASC_NODE": 114.5499, "ARG_OF_PERICENTER": 1.9713, "MEAN_ANOMALY": 358.1537, "EPHEMERIS_TYPE": 0, "CLASSIFICATION_TYPE": "U", "NORAD_CAT_ID": 32060, "ELEMENT_SET_NO": 999, "REV_AT_EPOCH": 1607, "BSTAR": 0.00036124565, "MEAN_MOTION_DOT": 8.663e-05, "MEAN_MOTION_DDOT": 0}, "tle": {"line1": "1 32060U 07041A   25357.22072186  .00008663  00000+0  36125-3 0  9995", "line2": "2 32060  97.3827 114.5499 0003278   1.9713 358.1537 15.23921594 16070"}}, "geometry": {"type": "Point", "coordinates": [148.6240831227624, -76.76024206172677]}}]}